{
  "type": "FeatureCollection",
  "features": [
    {
      "type": "Feature",
      "properties": {
        "norad_id": 34570,
        "name": "COSMOS 2251 DEB",
        "group": "cosmos-2251-debris",
        "lat": 63.30101753492568,
        "lon": -109.84316228179631,
        "alt_km": 766.2042860410475,
        "timestamp": "2025-12-14T11:29:50.454937+00:00",
        "meta_object_name": "COSMOS 2251 DEB",
        "meta_object_id": "1993-036VG",
        "meta_epoch": "2025-12-13T16:35:09.572064",
        "meta_mean_motion": 13.99821406,
        "meta_eccentricity": 0.01902307,
        "meta_inclination": 73.957,
        "meta_ra_of_asc_node": 216.6281,
        "meta_arg_of_pericenter": 98.9126,
        "meta_mean_anomaly": 321.1998,
        "meta_ephemeris_type": 0,
        "meta_classification_type": "U",
        "meta_norad_cat_id": 34570,
        "meta_element_set_no": 999,
        "meta_rev_at_epoch": 85614,
        "meta_bstar": 0.00064873784,
        "meta_mean_motion_dot": 1.089e-05,
        "meta_mean_motion_ddot": 0,
        "tle_line1": "1 34570U 93036VG  25347.69108301  .00001089  00000+0  64874-3 0  9998",
        "tle_line2": "2 34570  73.9570 216.6281 0190230  98.9126 321.1998 13.99821406856148"
      },
      "geometry": {
        "type": "Point",
        "coordinates": [
          -109.84316228179631,
          63.30101753492568
        ]
      }
    },
    {
      "type": "Feature",
      "properties": {
        "norad_id": 34571,
        "name": "COSMOS 2251 DEB",
        "group": "cosmos-2251-debris",
        "lat": -44.38663877277244,
        "lon": 15.441964268828546,
        "alt_km": 690.0207268905988,
        "timestamp": "2025-12-14T11:29:50.454947+00:00",
        "meta_object_name": "COSMOS 2251 DEB",
        "meta_object_id": "1993-036VH",
        "meta_epoch": "2025-12-13T06:16:53.696640",
        "meta_mean_motion": 14.48823759,
        "meta_eccentricity": 0.00659661,
        "meta_inclination": 74.0385,
        "meta_ra_of_asc_node": 181.4538,
        "meta_arg_of_pericenter": 216.2761,
        "meta_mean_anomaly": 143.3919,
        "meta_ephemeris_type": 0,
        "meta_classification_type": "U",
        "meta_norad_cat_id": 34571,
        "meta_element_set_no": 999,
        "meta_rev_at_epoch": 87301,
        "meta_bstar": 0.0035055675,
        "meta_mean_motion_dot": 0.00013615,
        "meta_mean_motion_ddot": 0,
        "tle_line1": "1 34571U 93036VH  25347.26173260  .00013615  00000+0  35056-2 0  9995",
        "tle_line2": "2 34571  74.0385 181.4538 0065966 216.2761 143.3919 14.48823759873016"
      },
      "geometry": {
        "type": "Point",
        "coordinates": [
          15.441964268828546,
          -44.38663877277244
        ]
      }
    },
    {
      "type": "Feature",
      "properties": {
        "norad_id": 34572,
        "name": "COSMOS 2251 DEB",
        "group": "cosmos-2251-debris",
        "lat": 73.02632036719426,
        "lon": -137.72068949346038,
        "alt_km": 717.6616789693562,
        "timestamp": "2025-12-14T11:29:50.454957+00:00",
        "meta_object_name": "COSMOS 2251 DEB",
        "meta_object_id": "1993-036VJ",
        "meta_epoch": "2025-12-12T01:39:23.053248",
        "meta_mean_motion": 14.49993335,
        "meta_eccentricity": 0.00629257,
        "meta_inclination": 74.0101,
        "meta_ra_of_asc_node": 116.7677,
        "meta_arg_of_pericenter": 190.7051,
        "meta_mean_anomaly": 290.1646,
        "meta_ephemeris_type": 0,
        "meta_classification_type": "U",
        "meta_norad_cat_id": 34572,
        "meta_element_set_no": 999,
        "meta_rev_at_epoch": 87368,
        "meta_bstar": 0.0042166825,
        "meta_mean_motion_dot": 0.00016761,
        "meta_mean_motion_ddot": 0,
        "tle_line1": "1 34572U 93036VJ  25346.06901682  .00016761  00000+0  42167-2 0  9996",
        "tle_line2": "2 34572  74.0101 116.7677 0062925 190.7051 290.1646 14.49993335873688"
      },
      "geometry": {
        "type": "Point",
        "coordinates": [
          -137.72068949346038,
          73.02632036719426
        ]
      }
    },
    {
      "type": "Feature",
      "properties": {
        "norad_id": 34574,
        "name": "COSMOS 2251 DEB",
        "group": "cosmos-2251-debris",
        "lat": 62.12285604296774,
        "lon": -172.91712050383282,
        "alt_km": 623.9964929634925,
        "timestamp": "2025-12-14T11:29:50.454967+00:00",
        "meta_object_name": "COSMOS 2251 DEB",
        "meta_object_id": "1993-036VL",
        "meta_epoch": "2025-12-13T10:36:13.787136",
        "meta_mean_motion": 14.70622113,
        "meta_eccentricity": 0.00669303,
        "meta_inclination": 74.0694,
        "meta_ra_of_asc_node": 41.7729,
        "meta_arg_of_pericenter": 62.5438,
        "meta_mean_anomaly": 320.8862,
        "meta_ephemeris_type": 0,
        "meta_classification_type": "U",
        "meta_norad_cat_id": 34574,
        "meta_element_set_no": 999,
        "meta_rev_at_epoch": 88789,
        "meta_bstar": 0.0014664729,
        "meta_mean_motion_dot": 9.216e-05,
        "meta_mean_motion_ddot": 0,
        "tle_line1": "1 34574U 93036VL  25347.44182624  .00009216  00000+0  14665-2 0  9997",
        "tle_line2": "2 34574  74.0694  41.7729 0066930  62.5438 320.8862 14.70622113887893"
      },
      "geometry": {
        "type": "Point",
        "coordinates": [
          -172.91712050383282,
          62.12285604296774
        ]
      }
    },
    {
      "type": "Feature",
      "properties": {
        "norad_id": 34576,
        "name": "COSMOS 2251 DEB",
        "group": "cosmos-2251-debris",
        "lat": -12.382450167360028,
        "lon": 131.29824745592566,
        "alt_km": 710.6855171245743,
        "timestamp": "2025-12-14T11:29:50.454994+00:00",
        "meta_object_name": "COSMOS 2251 DEB",
        "meta_object_id": "1993-036VN",
        "meta_epoch": "2025-12-13T11:06:11.229408",
        "meta_mean_motion": 14.554356,
        "meta_eccentricity": 0.00080874,
        "meta_inclination": 74.0334,
        "meta_ra_of_asc_node": 136.8269,
        "meta_arg_of_pericenter": 272.6728,
        "meta_mean_anomaly": 150.987,
        "meta_ephemeris_type": 0,
        "meta_classification_type": "U",
        "meta_norad_cat_id": 34576,
        "meta_element_set_no": 999,
        "meta_rev_at_epoch": 88477,
        "meta_bstar": 0.0014351344,
        "meta_mean_motion_dot": 6.219e-05,
        "meta_mean_motion_ddot": 0,
        "tle_line1": "1 34576U 93036VN  25347.46262997  .00006219  00000+0  14351-2 0  9995",
        "tle_line2": "2 34576  74.0334 136.8269 0008087 272.6728 150.9870 14.55435600884777"
      },
      "geometry": {
        "type": "Point",
        "coordinates": [
          131.29824745592566,
          -12.382450167360028
        ]
      }
    },
    {
      "type": "Feature",
      "properties": {
        "norad_id": 34579,
        "name": "COSMOS 2251 DEB",
        "group": "cosmos-2251-debris",
        "lat": 36.45738620105341,
        "lon": 28.45987427291749,
        "alt_km": 754.5528640949888,
        "timestamp": "2025-12-14T11:29:50.455005+00:00",
        "meta_object_name": "COSMOS 2251 DEB",
        "meta_object_id": "1993-036VR",
        "meta_epoch": "2025-12-13T16:49:58.317888",
        "meta_mean_motion": 14.45312622,
        "meta_eccentricity": 0.00275458,
        "meta_inclination": 74.053,
        "meta_ra_of_asc_node": 222.1027,
        "meta_arg_of_pericenter": 290.6153,
        "meta_mean_anomaly": 126.5349,
        "meta_ephemeris_type": 0,
        "meta_classification_type": "U",
        "meta_norad_cat_id": 34579,
        "meta_element_set_no": 999,
        "meta_rev_at_epoch": 88188,
        "meta_bstar": 0.00055184265,
        "meta_mean_motion_dot": 1.92e-05,
        "meta_mean_motion_ddot": 0,
        "tle_line1": "1 34579U 93036VR  25347.70136942  .00001920  00000+0  55184-3 0  9999",
        "tle_line2": "2 34579  74.0530 222.1027 0027545 290.6153 126.5349 14.45312622881887"
      },
      "geometry": {
        "type": "Point",
        "coordinates": [
          28.45987427291749,
          36.45738620105341
        ]
      }
    },
    {
      "type": "Feature",
      "properties": {
        "norad_id": 34582,
        "name": "COSMOS 2251 DEB",
        "group": "cosmos-2251-debris",
        "lat": 63.10789448005474,
        "lon": -56.45280510494364,
        "alt_km": 718.6092051822179,
        "timestamp": "2025-12-14T11:29:50.455016+00:00",
        "meta_object_name": "COSMOS 2251 DEB",
        "meta_object_id": "1993-036VU",
        "meta_epoch": "2025-12-13T11:53:49.503840",
        "meta_mean_motion": 14.4333215,
        "meta_eccentricity": 0.00478958,
        "meta_inclination": 74.0198,
        "meta_ra_of_asc_node": 270.9708,
        "meta_arg_of_pericenter": 20.9274,
        "meta_mean_anomaly": 339.3828,
        "meta_ephemeris_type": 0,
        "meta_classification_type": "U",
        "meta_norad_cat_id": 34582,
        "meta_element_set_no": 999,
        "meta_rev_at_epoch": 87958,
        "meta_bstar": 0.0012643392,
        "meta_mean_motion_dot": 4.298e-05,
        "meta_mean_motion_ddot": 0,
        "tle_line1": "1 34582U 93036VU  25347.49571185  .00004298  00000+0  12643-2 0  9994",
        "tle_line2": "2 34582  74.0198 270.9708 0047895  20.9274 339.3828 14.43332150879582"
      },
      "geometry": {
        "type": "Point",
        "coordinates": [
          -56.45280510494364,
          63.10789448005474
        ]
      }
    }
  ]
}